[{"norad_id":"41925","company":"IRIDIUM-NEXT","tle_line2":"2 41925  86.3952 225.4648 0002272  90.9287 269.2169 14.34217704446209","launch_date":"2017-01-14","type":"LEO","tle_line1":"1 41925U 17003J   25204.80289645  .00000006  00000+0 -49946-5 0  9990","satellite_name":"IRIDIUM 112"},{"norad_id":"41926","company":"IRIDIUM-NEXT","tle_line2":"2 41926  86.3954 225.3876 0002017  90.1916 269.9511 14.34217049446303","launch_date":"2017-01-14","type":"LEO","tle_line1":"1 41926U 17003K   25205.13905030 -.00000021  00000+0 -14616-4 0  9994","satellite_name":"IRIDIUM 111"},{"norad_id":"42803","company":"IRIDIUM-NEXT","tle_line2":"2 42803  86.3961  99.4725 0002374  81.0296 279.1169 14.34217863424116","launch_date":"2017-06-25","type":"LEO","tle_line1":"1 42803U 17039A   25204.77017633  .00000062  00000+0  15163-4 0  9991","satellite_name":"IRIDIUM 113"},{"norad_id":"42804","company":"IRIDIUM-NEXT","tle_line2":"2 42804  86.4001 130.8973 0001928  80.2762 279.8651 14.34217582422895","launch_date":"2017-06-25","type":"LEO","tle_line1":"1 42804U 17039B   25204.88142255  .00000011  00000+0 -31042-5 0  9993","satellite_name":"IRIDIUM 123"},{"norad_id":"42805","company":"IRIDIUM-NEXT","tle_line2":"2 42805  86.3949  99.3000 0001901  89.3548 270.7866 14.34217548424105","launch_date":"2017-06-25","type":"LEO","tle_line1":"1 42805U 17039C   25204.76383286  .00000042  00000+0  79761-5 0  9995","satellite_name":"IRIDIUM 120"},{"norad_id":"42806","company":"IRIDIUM-NEXT","tle_line2":"2 42806  86.4487  99.3824 0001563  75.2012 284.9362 14.43280580426894","launch_date":"2017-06-25","type":"LEO","tle_line1":"1 42806U 17039D   25204.76771797  .00000355  00000+0  99425-4 0  9999","satellite_name":"IRIDIUM 115"},{"norad_id":"42807","company":"IRIDIUM-NEXT","tle_line2":"2 42807  86.4001 130.8834 0002385  81.7564 278.3902 14.34217915422891","launch_date":"2017-06-25","type":"LEO","tle_line1":"1 42807U 17039E   25204.91313621  .00000070  00000+0  17782-4 0  9995","satellite_name":"IRIDIUM 118"},{"norad_id":"42808","company":"IRIDIUM-NEXT","tle_line2":"2 42808  86.3999 130.7199 0002101  79.0445 281.0987 14.34217752422976","launch_date":"2017-06-25","type":"LEO","tle_line1":"1 42808U 17039F   25205.21123735  .00000098  00000+0  28071-4 0  9998","satellite_name":"IRIDIUM 117"}]